[Satellite]
VERSION=1.1
NAME=FLOCK 2P-8
NICKNAME=FLOCK 2P-8
TLE1=1 41613U 16040Q   18020.96521877  .00003447  00000-0  14586-3 0  9997
TLE2=2 41613  97.4354  87.0574 0011687  46.3977 313.8228 15.23813906 87818
